{
  "type": "FeatureCollection",
  "features": [
    {
      "type": "Feature",
      "properties": {
        "norad_id": 34765,
        "name": "IRIDIUM 33 DEB",
        "group": "iridium-33-debris",
        "lat": -79.71135537377133,
        "lon": 13.450475678045466,
        "alt_km": 758.5950374150943,
        "timestamp": "2025-12-09T14:52:26.547790+00:00",
        "meta_object_name": "IRIDIUM 33 DEB",
        "meta_object_id": "1997-051LJ",
        "meta_epoch": "2025-12-09T03:49:56.531712",
        "meta_mean_motion": 14.40450451,
        "meta_eccentricity": 0.00150885,
        "meta_inclination": 86.3395,
        "meta_ra_of_asc_node": 34.2977,
        "meta_arg_of_pericenter": 223.9974,
        "meta_mean_anomaly": 191.2679,
        "meta_ephemeris_type": 0,
        "meta_classification_type": "U",
        "meta_norad_cat_id": 34765,
        "meta_element_set_no": 999,
        "meta_rev_at_epoch": 87562,
        "meta_bstar": 0.0005452976,
        "meta_mean_motion_dot": 1.754e-05,
        "meta_mean_motion_ddot": 0,
        "tle_line1": "1 34765U 97051LJ  25343.15968208  .00001754  00000+0  54530-3 0  9999",
        "tle_line2": "2 34765  86.3395  34.2977 0015088 223.9974 191.2679 14.40450451875622"
      },
      "geometry": {
        "type": "Point",
        "coordinates": [
          13.450475678045466,
          -79.71135537377133
        ]
      }
    },
    {
      "type": "Feature",
      "properties": {
        "norad_id": 34833,
        "name": "IRIDIUM 33 DEB",
        "group": "iridium-33-debris",
        "lat": -71.35999636493827,
        "lon": -116.88311927110622,
        "alt_km": 737.825942014796,
        "timestamp": "2025-12-09T14:52:26.547800+00:00",
        "meta_object_name": "IRIDIUM 33 DEB",
        "meta_object_id": "1997-051MH",
        "meta_epoch": "2025-12-09T05:43:51.843072",
        "meta_mean_motion": 14.52344467,
        "meta_eccentricity": 0.00217975,
        "meta_inclination": 86.3929,
        "meta_ra_of_asc_node": 52.5028,
        "meta_arg_of_pericenter": 109.2817,
        "meta_mean_anomaly": 311.6946,
        "meta_ephemeris_type": 0,
        "meta_classification_type": "U",
        "meta_norad_cat_id": 34833,
        "meta_element_set_no": 999,
        "meta_rev_at_epoch": 87664,
        "meta_bstar": 0.0011811113,
        "meta_mean_motion_dot": 4.84e-05,
        "meta_mean_motion_ddot": 0,
        "tle_line1": "1 34833U 97051MH  25343.23879448  .00004840  00000+0  11811-2 0  9994",
        "tle_line2": "2 34833  86.3929  52.5028 0021797 109.2817 311.6946 14.52344467876647"
      },
      "geometry": {
        "type": "Point",
        "coordinates": [
          -116.88311927110622,
          -71.35999636493827
        ]
      }
    },
    {
      "type": "Feature",
      "properties": {
        "norad_id": 34870,
        "name": "IRIDIUM 33 DEB",
        "group": "iridium-33-debris",
        "lat": -45.60550394522857,
        "lon": -48.267423567043416,
        "alt_km": 653.0955531376012,
        "timestamp": "2025-12-09T14:52:26.547811+00:00",
        "meta_object_name": "IRIDIUM 33 DEB",
        "meta_object_id": "1997-051MQ",
        "meta_epoch": "2025-12-07T16:41:29.147136",
        "meta_mean_motion": 14.76272854,
        "meta_eccentricity": 0.00154972,
        "meta_inclination": 86.3098,
        "meta_ra_of_asc_node": 316.3932,
        "meta_arg_of_pericenter": 201.8058,
        "meta_mean_anomaly": 332.1989,
        "meta_ephemeris_type": 0,
        "meta_classification_type": "U",
        "meta_norad_cat_id": 34870,
        "meta_element_set_no": 999,
        "meta_rev_at_epoch": 88836,
        "meta_bstar": 0.0021061979,
        "meta_mean_motion_dot": 0.00014658,
        "meta_mean_motion_ddot": 0,
        "tle_line1": "1 34870U 97051MQ  25341.69547624  .00014658  00000+0  21062-2 0  9998",
        "tle_line2": "2 34870  86.3098 316.3932 0015497 201.8058 332.1989 14.76272854888369"
      },
      "geometry": {
        "type": "Point",
        "coordinates": [
          -48.267423567043416,
          -45.60550394522857
        ]
      }
    },
    {
      "type": "Feature",
      "properties": {
        "norad_id": 34896,
        "name": "IRIDIUM 33 DEB",
        "group": "iridium-33-debris",
        "lat": -86.21729908707371,
        "lon": -135.7588717047902,
        "alt_km": 668.1782074322264,
        "timestamp": "2025-12-09T14:52:26.547822+00:00",
        "meta_object_name": "IRIDIUM 33 DEB",
        "meta_object_id": "1997-051MY",
        "meta_epoch": "2025-12-09T05:43:17.078304",
        "meta_mean_motion": 14.66220489,
        "meta_eccentricity": 0.00240339,
        "meta_inclination": 86.3293,
        "meta_ra_of_asc_node": 328.2553,
        "meta_arg_of_pericenter": 227.4371,
        "meta_mean_anomaly": 189.808,
        "meta_ephemeris_type": 0,
        "meta_classification_type": "U",
        "meta_norad_cat_id": 34896,
        "meta_element_set_no": 999,
        "meta_rev_at_epoch": 87568,
        "meta_bstar": 0.0013764598,
        "meta_mean_motion_dot": 7.633e-05,
        "meta_mean_motion_ddot": 0,
        "tle_line1": "1 34896U 97051MY  25343.23839211  .00007633  00000+0  13765-2 0  9990",
        "tle_line2": "2 34896  86.3293 328.2553 0024033 227.4371 189.8080 14.66220489875689"
      },
      "geometry": {
        "type": "Point",
        "coordinates": [
          -135.7588717047902,
          -86.21729908707371
        ]
      }
    },
    {
      "type": "Feature",
      "properties": {
        "norad_id": 34926,
        "name": "IRIDIUM 33 DEB",
        "group": "iridium-33-debris",
        "lat": 50.37107607486231,
        "lon": -174.96698325718765,
        "alt_km": 761.1260540969588,
        "timestamp": "2025-12-09T14:52:26.547832+00:00",
        "meta_object_name": "IRIDIUM 33 DEB",
        "meta_object_id": "1997-051NF",
        "meta_epoch": "2025-12-09T03:00:38.009952",
        "meta_mean_motion": 14.54144924,
        "meta_eccentricity": 0.00760026,
        "meta_inclination": 86.1319,
        "meta_ra_of_asc_node": 9.9484,
        "meta_arg_of_pericenter": 305.1684,
        "meta_mean_anomaly": 118.2748,
        "meta_ephemeris_type": 0,
        "meta_classification_type": "U",
        "meta_norad_cat_id": 34926,
        "meta_element_set_no": 999,
        "meta_rev_at_epoch": 86404,
        "meta_bstar": 0.0063092717,
        "meta_mean_motion_dot": 0.00027819,
        "meta_mean_motion_ddot": 0,
        "tle_line1": "1 34926U 97051NF  25343.12543993  .00027819  00000+0  63093-2 0  9998",
        "tle_line2": "2 34926  86.1319   9.9484 0076002 305.1684 118.2748 14.54144924864041"
      },
      "geometry": {
        "type": "Point",
        "coordinates": [
          -174.96698325718765,
          50.37107607486231
        ]
      }
    },
    {
      "type": "Feature",
      "properties": {
        "norad_id": 34985,
        "name": "IRIDIUM 33 DEB",
        "group": "iridium-33-debris",
        "lat": 32.38031819823226,
        "lon": 60.51788622604162,
        "alt_km": 763.9268845605884,
        "timestamp": "2025-12-09T14:52:26.547842+00:00",
        "meta_object_name": "IRIDIUM 33 DEB",
        "meta_object_id": "1997-051NR",
        "meta_epoch": "2025-12-09T04:51:57.169728",
        "meta_mean_motion": 14.41984633,
        "meta_eccentricity": 0.00203693,
        "meta_inclination": 86.3692,
        "meta_ra_of_asc_node": 58.3881,
        "meta_arg_of_pericenter": 231.8923,
        "meta_mean_anomaly": 157.2184,
        "meta_ephemeris_type": 0,
        "meta_classification_type": "U",
        "meta_norad_cat_id": 34985,
        "meta_element_set_no": 999,
        "meta_rev_at_epoch": 87124,
        "meta_bstar": 0.00086961051,
        "meta_mean_motion_dot": 2.876e-05,
        "meta_mean_motion_ddot": 0,
        "tle_line1": "1 34985U 97051NR  25343.20274502  .00002876  00000+0  86961-3 0  9995",
        "tle_line2": "2 34985  86.3692  58.3881 0020369 231.8923 157.2184 14.41984633871249"
      },
      "geometry": {
        "type": "Point",
        "coordinates": [
          60.51788622604162,
          32.38031819823226
        ]
      }
    },
    {
      "type": "Feature",
      "properties": {
        "norad_id": 35051,
        "name": "IRIDIUM 33 DEB",
        "group": "iridium-33-debris",
        "lat": -81.75193459769054,
        "lon": -143.4534891538747,
        "alt_km": 748.2360130638481,
        "timestamp": "2025-12-09T14:52:26.547852+00:00",
        "meta_object_name": "IRIDIUM 33 DEB",
        "meta_object_id": "1997-051NX",
        "meta_epoch": "2025-12-08T19:24:58.044960",
        "meta_mean_motion": 14.47572985,
        "meta_eccentricity": 0.00105834,
        "meta_inclination": 86.3244,
        "meta_ra_of_asc_node": 10.5757,
        "meta_arg_of_pericenter": 101.6319,
        "meta_mean_anomaly": 258.6072,
        "meta_ephemeris_type": 0,
        "meta_classification_type": "U",
        "meta_norad_cat_id": 35051,
        "meta_element_set_no": 999,
        "meta_rev_at_epoch": 86939,
        "meta_bstar": 0.001137816,
        "meta_mean_motion_dot": 4.208e-05,
        "meta_mean_motion_ddot": 0,
        "tle_line1": "1 35051U 97051NX  25342.80900515  .00004208  00000+0  11378-2 0  9995",
        "tle_line2": "2 35051  86.3244  10.5757 0010583 101.6319 258.6072 14.47572985869393"
      },
      "geometry": {
        "type": "Point",
        "coordinates": [
          -143.4534891538747,
          -81.75193459769054
        ]
      }
    }
  ]
}